[{"OBJECT_NAME":"GREGOIRE","OBJECT_ID":"2023-084Q","EPOCH":"2026-03-09T22:27:34.471296","MEAN_MOTION":15.35838856,"ECCENTRICITY":0.00062831,"INCLINATION":97.6076,"RA_OF_ASC_NODE":209.2239,"ARG_OF_PERICENTER":318.3511,"MEAN_ANOMALY":41.7253,"EPHEMERIS_TYPE":0,"CLASSIFICATION_TYPE":"U","NORAD_CAT_ID":56946,"ELEMENT_SET_NO":999,"REV_AT_EPOCH":15246,"BSTAR":0.00033169769,"MEAN_MOTION_DOT":0.00011493,"MEAN_MOTION_DDOT":0},{"OBJECT_NAME":"LEMUR-2-EMBRIONOVIS","OBJECT_ID":"2023-084AQ","EPOCH":"2026-03-09T22:21:55.974240","MEAN_MOTION":15.34650722,"ECCENTRICITY":0.00082915,"INCLINATION":97.613,"RA_OF_ASC_NODE":209.6192,"ARG_OF_PERICENTER":311.1934,"MEAN_ANOMALY":48.8593,"EPHEMERIS_TYPE":0,"CLASSIFICATION_TYPE":"U","NORAD_CAT_ID":56970,"ELEMENT_SET_NO":999,"REV_AT_EPOCH":15244,"BSTAR":0.00028007408,"MEAN_MOTION_DOT":9.331e-5,"MEAN_MOTION_DDOT":0}]
